{
    "links": {
        "self": "http://www.neowsapp.com/rest/v1/neo/3443216?api_key=iIulBulltgU6a56xZRHN4H3l9WmuAYTsLGpBGhQ2"
    },
    "id": "3443216",
    "neo_reference_id": "3443216",
    "name": "(2008 YG30)",
    "designation": "2008 YG30",
    "nasa_jpl_url": "http://ssd.jpl.nasa.gov/sbdb.cgi?sstr=3443216",
    "absolute_magnitude_h": 24.6,
    "estimated_diameter": {
        "kilometers": {
            "estimated_diameter_min": 0.0319561887,
            "estimated_diameter_max": 0.0714562102
        },
        "meters": {
            "estimated_diameter_min": 31.9561886721,
            "estimated_diameter_max": 71.4562101727
        },
        "miles": {
            "estimated_diameter_min": 0.0198566489,
            "estimated_diameter_max": 0.0444008168
        },
        "feet": {
            "estimated_diameter_min": 104.8431420431,
            "estimated_diameter_max": 234.436392583
        }
    },
    "is_potentially_hazardous_asteroid": false,
    "close_approach_data": [
        {
            "close_approach_date": "1985-02-20",
            "close_approach_date_full": "1985-Feb-20 10:18",
            "epoch_date_close_approach": 477742680000,
            "relative_velocity": {
                "kilometers_per_second": "9.3811511653",
                "kilometers_per_hour": "33772.1441951167",
                "miles_per_hour": "20984.6970416824"
            },
            "miss_distance": {
                "astronomical": "0.1431602785",
                "lunar": "55.6893483365",
                "kilometers": "21416472.732206795",
                "miles": "13307579.075151971"
            },
            "orbiting_body": "Earth"
        },
        {
            "close_approach_date": "2009-01-04",
            "close_approach_date_full": "2009-Jan-04 20:08",
            "epoch_date_close_approach": 1231099680000,
            "relative_velocity": {
                "kilometers_per_second": "11.6523716841",
                "kilometers_per_hour": "41948.5380627002",
                "miles_per_hour": "26065.1902201262"
            },
            "miss_distance": {
                "astronomical": "0.0093299857",
                "lunar": "3.6293644373",
                "kilometers": "1395745.987850459",
                "miles": "867276.3407119742"
            },
            "orbiting_body": "Earth"
        },
        {
            "close_approach_date": "2016-05-10",
            "close_approach_date_full": "2016-May-10 21:43",
            "epoch_date_close_approach": 1462916580000,
            "relative_velocity": {
                "kilometers_per_second": "22.2225897883",
                "kilometers_per_hour": "80001.3232378148",
                "miles_per_hour": "49709.7110974078"
            },
            "miss_distance": {
                "astronomical": "0.4111737691",
                "lunar": "159.9465961799",
                "kilometers": "61510720.057231817",
                "miles": "38220989.1127483946"
            },
            "orbiting_body": "Earth"
        },
        {
            "close_approach_date": "2085-05-04",
            "close_approach_date_full": "2085-May-04 05:48",
            "epoch_date_close_approach": 3639793680000,
            "relative_velocity": {
                "kilometers_per_second": "18.2236561865",
                "kilometers_per_hour": "65605.1622714122",
                "miles_per_hour": "40764.4965235895"
            },
            "miss_distance": {
                "astronomical": "0.2905318573",
                "lunar": "113.0168924897",
                "kilometers": "43462947.019223951",
                "miles": "27006622.9639984838"
            },
            "orbiting_body": "Earth"
        }
    ],
    "orbital_data": {
        "orbit_id": "11",
        "orbit_determination_date": "2017-04-06 09:01:46",
        "first_observation_date": "2008-12-31",
        "last_observation_date": "2009-01-04",
        "data_arc_in_days": 4,
        "observations_used": 41,
        "orbit_uncertainty": "7",
        "minimum_orbit_intersection": ".00294798",
        "jupiter_tisserand_invariant": "3.923",
        "epoch_osculation": "2459000.5",
        "eccentricity": ".5039245488201806",
        "semi_major_axis": "1.780758269385166",
        "inclination": "7.820264974086898",
        "ascending_node_longitude": "284.6392325866903",
        "orbital_period": "867.9723319224961",
        "perihelion_distance": ".8833904619274404",
        "perihelion_argument": "227.2329061231444",
        "aphelion_distance": "2.678126076842891",
        "perihelion_time": "2459212.065519890648",
        "mean_anomaly": "272.2511347891279",
        "mean_motion": ".4147597645222469",
        "equinox": "J2000",
        "orbit_class": {
            "orbit_class_type": "APO",
            "orbit_class_description": "Near-Earth asteroid orbits which cross the Earth’s orbit similar to that of 1862 Apollo",
            "orbit_class_range": "a (semi-major axis) > 1.0 AU; q (perihelion) < 1.017 AU"
        }
    },
    "is_sentry_object": false
}